start=new Date('2022-09-28T00:00:00.000Z').valueOf();
sats=[{"DECAY_DATE":null,"MEAN_ELEMENT_THEORY":"SGP4","OBJECT_NAME":"STARLINK-4520","ARG_OF_PERICENTER":"44.9620","OBJECT_TYPE":"PAYLOAD","TIME_SYSTEM":"UTC","EPHEMERIS_TYPE":"0","OBJECT_ID":"2022-097N","CLASSIFICATION_TYPE":"U","LAUNCH_DATE":"2022-08-10","FILE":"3585280","INCLINATION":"53.2181","RCS_SIZE":"LARGE","REV_AT_EPOCH":"130","SEMIMAJOR_AXIS":"6917.782","APOAPSIS":"540.801","TLE_LINE1":"1 53400U 22097N   22270.91668981 -.00011123  00000-0 -68120-3 0  9993","TLE_LINE2":"2 53400  53.2181  14.9555 0001668  44.9620   1.5684 15.08872228  1300","MEAN_MOTION_DDOT":"0.0000000000000","PERIAPSIS":"538.493","RA_OF_ASC_NODE":"14.9555","ECCENTRICITY":"0.00016680","NORAD_CAT_ID":"53400","GP_ID":"213669636","EPOCH":"2022-09-27T22:00:01.999584","SITE":"AFETR","COUNTRY_CODE":"US","MEAN_MOTION":"15.08872228","MEAN_ANOMALY":"1.5684","CENTER_NAME":"EARTH","REF_FRAME":"TEME","ELEMENT_SET_NO":"999","PERIOD":"95.436","BSTAR":"-0.00068120000000","MEAN_MOTION_DOT":"-0.00011123"},{"MEAN_MOTION":"15.08875355","COUNTRY_CODE":"US","PERIOD":"95.435","BSTAR":"-0.00092247000000","MEAN_MOTION_DOT":"-0.00014954","CENTER_NAME":"EARTH","MEAN_ANOMALY":"266.0691","REF_FRAME":"TEME","ELEMENT_SET_NO":"999","MEAN_MOTION_DDOT":"0.0000000000000","PERIAPSIS":"538.219","RA_OF_ASC_NODE":"14.9597","ECCENTRICITY":"0.00020500","TLE_LINE1":"1 53401U 22097P   22270.91668981 -.00014954  00000-0 -92247-3 0  9996","TLE_LINE2":"2 53401  53.2201  14.9597 0002050  60.4993 266.0691 15.08875355  1302","EPOCH":"2022-09-27T22:00:01.999584","GP_ID":"213668735","SITE":"AFETR","NORAD_CAT_ID":"53401","LAUNCH_DATE":"2022-08-10","CLASSIFICATION_TYPE":"U","INCLINATION":"53.2201","RCS_SIZE":"LARGE","REV_AT_EPOCH":"130","APOAPSIS":"541.055","SEMIMAJOR_AXIS":"6917.772","FILE":"3585280","DECAY_DATE":null,"MEAN_ELEMENT_THEORY":"SGP4","OBJECT_ID":"2022-097P","EPHEMERIS_TYPE":"0","OBJECT_NAME":"STARLINK-4525","ARG_OF_PERICENTER":"60.4993","OBJECT_TYPE":"PAYLOAD","TIME_SYSTEM":"UTC"},{"EPHEMERIS_TYPE":"0","OBJECT_ID":"2022-097Q","ARG_OF_PERICENTER":"53.4502","TIME_SYSTEM":"UTC","OBJECT_TYPE":"PAYLOAD","OBJECT_NAME":"STARLINK-4499","MEAN_ELEMENT_THEORY":"SGP4","DECAY_DATE":null,"REV_AT_EPOCH":"130","APOAPSIS":"540.921","SEMIMAJOR_AXIS":"6917.768","INCLINATION":"53.2184","RCS_SIZE":"LARGE","FILE":"3585280","LAUNCH_DATE":"2022-08-10","CLASSIFICATION_TYPE":"U","GP_ID":"213669718","EPOCH":"2022-09-27T22:00:01.999584","SITE":"AFETR","NORAD_CAT_ID":"53402","ECCENTRICITY":"0.00018620","RA_OF_ASC_NODE":"14.9555","PERIAPSIS":"538.345","MEAN_MOTION_DDOT":"0.0000000000000","TLE_LINE2":"2 53402  53.2184  14.9555 0001862  53.4502  13.0679 15.08876804  1301","TLE_LINE1":"1 53402U 22097Q   22270.91668981 -.00010012  00000-0 -61118-3 0  9991","PERIOD":"95.435","BSTAR":"-0.00061118000000","MEAN_MOTION_DOT":"-0.00010012","ELEMENT_SET_NO":"999","MEAN_ANOMALY":"13.0679","CENTER_NAME":"EARTH","REF_FRAME":"TEME","MEAN_MOTION":"15.08876804","COUNTRY_CODE":"US"},{"EPHEMERIS_TYPE":"0","OBJECT_ID":"2022-097R","ARG_OF_PERICENTER":"52.7601","TIME_SYSTEM":"UTC","OBJECT_TYPE":"PAYLOAD","OBJECT_NAME":"STARLINK-4507","MEAN_ELEMENT_THEORY":"SGP4","DECAY_DATE":null,"REV_AT_EPOCH":"131","APOAPSIS":"540.685","SEMIMAJOR_AXIS":"6917.787","INCLINATION":"53.2186","RCS_SIZE":"LARGE","FILE":"3585280","LAUNCH_DATE":"2022-08-10","CLASSIFICATION_TYPE":"U","GP_ID":"213669314","EPOCH":"2022-09-27T22:00:01.999584","SITE":"AFETR","NORAD_CAT_ID":"53403","RA_OF_ASC_NODE":"14.9575","ECCENTRICITY":"0.00014940","PERIAPSIS":"538.618","MEAN_MOTION_DDOT":"0.0000000000000","TLE_LINE2":"2 53403  53.2186  14.9575 0001494  52.7601 308.5714 15.08870689  1317","TLE_LINE1":"1 53403U 22097R   22270.91668981 -.00017714  00000-0 -10967-2 0  9993","PERIOD":"95.436","BSTAR":"-0.00109670000000","MEAN_MOTION_DOT":"-0.00017714","ELEMENT_SET_NO":"999","MEAN_ANOMALY":"308.5714","CENTER_NAME":"EARTH","REF_FRAME":"TEME","MEAN_MOTION":"15.08870689","COUNTRY_CODE":"US"},{"SEMIMAJOR_AXIS":"6795.058","APOAPSIS":"418.332","REV_AT_EPOCH":"130","RCS_SIZE":"LARGE","INCLINATION":"53.2147","FILE":"3585280","LAUNCH_DATE":"2022-08-10","CLASSIFICATION_TYPE":"U","EPHEMERIS_TYPE":"0","OBJECT_ID":"2022-097S","OBJECT_TYPE":"PAYLOAD","TIME_SYSTEM":"UTC","ARG_OF_PERICENTER":"38.5825","OBJECT_NAME":"STARLINK-4509","DECAY_DATE":null,"MEAN_ELEMENT_THEORY":"SGP4","MEAN_MOTION_DOT":"-0.00015476","BSTAR":"-0.00026476000000","PERIOD":"92.907","ELEMENT_SET_NO":"999","REF_FRAME":"TEME","CENTER_NAME":"EARTH","MEAN_ANOMALY":"345.9828","MEAN_MOTION":"15.49933314","COUNTRY_CODE":"US","SITE":"AFETR","GP_ID":"213669876","EPOCH":"2022-09-27T22:00:01.999584","NORAD_CAT_ID":"53404","ECCENTRICITY":"0.00020730","RA_OF_ASC_NODE":"8.2102","PERIAPSIS":"415.514","MEAN_MOTION_DDOT":"0.0000000000000","TLE_LINE2":"2 53404  53.2147   8.2102 0002073  38.5825 345.9828 15.49933314  1301","TLE_LINE1":"1 53404U 22097S   22270.91668981 -.00015476  00000-0 -26476-3 0  9990"},{"EPHEMERIS_TYPE":"0","OBJECT_ID":"2022-097T","TIME_SYSTEM":"UTC","OBJECT_TYPE":"PAYLOAD","ARG_OF_PERICENTER":"57.9729","OBJECT_NAME":"STARLINK-4510","DECAY_DATE":null,"MEAN_ELEMENT_THEORY":"SGP4","SEMIMAJOR_AXIS":"6917.699","APOAPSIS":"540.608","REV_AT_EPOCH":"130","INCLINATION":"53.2200","RCS_SIZE":"LARGE","FILE":"3585280","LAUNCH_DATE":"2022-08-10","CLASSIFICATION_TYPE":"U","SITE":"AFETR","EPOCH":"2022-09-27T22:00:01.999584","GP_ID":"213669151","NORAD_CAT_ID":"53405","RA_OF_ASC_NODE":"14.9568","ECCENTRICITY":"0.00015090","PERIAPSIS":"538.520","MEAN_MOTION_DDOT":"0.0000000000000","TLE_LINE2":"2 53405  53.2200  14.9568 0001509  57.9729  28.5648 15.08899247  1308","TLE_LINE1":"1 53405U 22097T   22270.91668981 -.00046809  00000-0 -29374-2 0  9994","MEAN_MOTION_DOT":"-0.00046809","BSTAR":"-0.00293740000000","PERIOD":"95.434","ELEMENT_SET_NO":"999","REF_FRAME":"TEME","MEAN_ANOMALY":"28.5648","CENTER_NAME":"EARTH","MEAN_MOTION":"15.08899247","COUNTRY_CODE":"US"},{"RA_OF_ASC_NODE":"8.2516","ECCENTRICITY":"0.00020070","MEAN_MOTION_DDOT":"0.0000000000000","PERIAPSIS":"415.655","TLE_LINE2":"2 53406  53.2175   8.2516 0002007  36.6675 352.3961 15.49900691  1304","TLE_LINE1":"1 53406U 22097U   22270.91668981 -.00015610  00000-0 -26744-3 0  9990","SITE":"AFETR","EPOCH":"2022-09-27T22:00:01.999584","GP_ID":"213669480","NORAD_CAT_ID":"53406","MEAN_MOTION":"15.49900691","COUNTRY_CODE":"US","BSTAR":"-0.00026744000000","MEAN_MOTION_DOT":"-0.00015610","PERIOD":"92.909","ELEMENT_SET_NO":"999","REF_FRAME":"TEME","CENTER_NAME":"EARTH","MEAN_ANOMALY":"352.3961","MEAN_ELEMENT_THEORY":"SGP4","DECAY_DATE":null,"EPHEMERIS_TYPE":"0","OBJECT_ID":"2022-097U","OBJECT_TYPE":"PAYLOAD","TIME_SYSTEM":"UTC","ARG_OF_PERICENTER":"36.6675","OBJECT_NAME":"STARLINK-4533","LAUNCH_DATE":"2022-08-10","CLASSIFICATION_TYPE":"U","APOAPSIS":"418.382","SEMIMAJOR_AXIS":"6795.153","REV_AT_EPOCH":"130","INCLINATION":"53.2175","RCS_SIZE":"LARGE","FILE":"3585280"},{"EPOCH":"2022-09-27T22:00:01.999584","GP_ID":"213668900","SITE":"AFETR","NORAD_CAT_ID":"53407","RA_OF_ASC_NODE":"6.9495","ECCENTRICITY":"0.00028440","MEAN_MOTION_DDOT":"0.0000000000000","PERIAPSIS":"347.604","TLE_LINE2":"2 53407  53.2172   6.9495 0002844  13.3887 330.9100 15.73285064  1303","TLE_LINE1":"1 53407U 22097V   22270.91668981 -.00076241  00000-0 -54160-3 0  9991","PERIOD":"91.528","MEAN_MOTION_DOT":"-0.00076241","BSTAR":"-0.00054160000000","ELEMENT_SET_NO":"999","CENTER_NAME":"EARTH","MEAN_ANOMALY":"330.9100","REF_FRAME":"TEME","MEAN_MOTION":"15.73285064","COUNTRY_CODE":"US","EPHEMERIS_TYPE":"0","OBJECT_ID":"2022-097V","ARG_OF_PERICENTER":"13.3887","TIME_SYSTEM":"UTC","OBJECT_TYPE":"PAYLOAD","OBJECT_NAME":"STARLINK-4537","MEAN_ELEMENT_THEORY":"SGP4","DECAY_DATE":null,"REV_AT_EPOCH":"130","SEMIMAJOR_AXIS":"6727.653","APOAPSIS":"351.431","INCLINATION":"53.2172","RCS_SIZE":"LARGE","FILE":"3585280","LAUNCH_DATE":"2022-08-10","CLASSIFICATION_TYPE":"U"},{"MEAN_MOTION_DDOT":"0.0000000000000","PERIAPSIS":"415.566","ECCENTRICITY":"0.00019560","RA_OF_ASC_NODE":"8.2148","TLE_LINE1":"1 53408U 22097W   22270.91668981 -.00014994  00000-0 -25617-3 0  9994","TLE_LINE2":"2 53408  53.2156   8.2148 0001956  40.1433 346.4965 15.49942788  1301","EPOCH":"2022-09-27T22:00:01.999584","GP_ID":"213669637","SITE":"AFETR","NORAD_CAT_ID":"53408","MEAN_MOTION":"15.49942788","COUNTRY_CODE":"US","PERIOD":"92.907","MEAN_MOTION_DOT":"-0.00014994","BSTAR":"-0.00025617000000","CENTER_NAME":"EARTH","MEAN_ANOMALY":"346.4965","REF_FRAME":"TEME","ELEMENT_SET_NO":"999","MEAN_ELEMENT_THEORY":"SGP4","DECAY_DATE":null,"EPHEMERIS_TYPE":"0","OBJECT_ID":"2022-097W","OBJECT_NAME":"STARLINK-4491","ARG_OF_PERICENTER":"40.1433","TIME_SYSTEM":"UTC","OBJECT_TYPE":"PAYLOAD","LAUNCH_DATE":"2022-08-10","CLASSIFICATION_TYPE":"U","INCLINATION":"53.2156","RCS_SIZE":"LARGE","REV_AT_EPOCH":"130","APOAPSIS":"418.224","SEMIMAJOR_AXIS":"6795.030","FILE":"3585280"},{"MEAN_ELEMENT_THEORY":"SGP4","DECAY_DATE":null,"TIME_SYSTEM":"UTC","OBJECT_TYPE":"PAYLOAD","ARG_OF_PERICENTER":"26.2991","OBJECT_NAME":"STARLINK-4490","EPHEMERIS_TYPE":"0","OBJECT_ID":"2022-097X","CLASSIFICATION_TYPE":"U","LAUNCH_DATE":"2022-08-10","FILE":"3585280","APOAPSIS":"351.221","SEMIMAJOR_AXIS":"6727.709","REV_AT_EPOCH":"130","RCS_SIZE":"LARGE","INCLINATION":"53.2180","TLE_LINE2":"2 53409  53.2180   6.9459 0002447  26.2991 319.1532 15.73265179  1305","TLE_LINE1":"1 53409U 22097X   22270.91668981 -.00025201  00000-0 -17514-3 0  9995","ECCENTRICITY":"0.00024470","RA_OF_ASC_NODE":"6.9459","MEAN_MOTION_DDOT":"0.0000000000000","PERIAPSIS":"347.928","NORAD_CAT_ID":"53409","SITE":"AFETR","GP_ID":"213668736","EPOCH":"2022-09-27T22:00:01.999584","COUNTRY_CODE":"US","MEAN_MOTION":"15.73265179","ELEMENT_SET_NO":"999","REF_FRAME":"TEME","MEAN_ANOMALY":"319.1532","CENTER_NAME":"EARTH","MEAN_MOTION_DOT":"-0.00025201","BSTAR":"-0.00017514000000","PERIOD":"91.529"}];
